ORBCOMM FM115 [+]       
1 41186U 15081H   23337.02375554  .00001342  00000+0  31154-3 0  9990
2 41186  46.9977 188.0151 0000754 325.3569  34.7268 14.60153354425550
ORBCOMM FM108 [+]       
1 41187U 15081J   23337.10345715  .00001946  00000+0  47460-3 0  9993
2 41187  47.0036 236.9441 0002705 259.2220 100.8360 14.56105691424824
ORBCOMM FM117 [+]       
1 41188U 15081K   23337.13786645  .00001933  00000+0  47172-3 0  9994
2 41188  46.9994 235.7304 0003507 269.3846  90.6637 14.56105482424874
ORBCOMM FM116 [+]       
1 41189U 15081L   23337.33319860  .00002165  00000+0  52349-3 0  9998
2 41189  47.0024 324.6177 0002601 337.2530  22.8239 14.56117729423710
